#dP2022  7 12  0  0  0.00000000      96 __u+U ITR14 FIT  IAC
## 2218 172800.00000000   900.00000000 59772 0.0000000000000
+  125   C01C02C03C04C05C06C07C09C10C11C12C13C14C16C19C20C21
+        C22C23C24C25C26C27C28C29C30C32C33C34C35C36C37C39C40
+        C41C42C43C44C45C46C59C60E01E02E03E04E05E07E08E09E10
+        E11E12E13E14E15E18E19E21E24E25E26E27E30E31E33E34E36
+        G01G02G03G04G05G06G07G08G09G10G11G12G13G14G15G16G17
+        G18G19G20G21G22G23G24G25G26G27G28G29G30G31G32J02J03
+        J07R01R02R03R04R05R06R07R08R09R10R11R12R13R14R15R17
+        R18R19R20R21R23R24  0  0  0  0  0  0  0  0  0  0  0
++        18 16 17 17 16  9  9  8  9  9  8  9  8  9  6  7  7
++         7  7  7  7  7  7  7  7  7  7  7  7  7  7  7  8  8
++         7  7  7  7  7  7 17 17  4  5  4  4  4  5  5  4  5
++         4  4  4  4  4  4  4  4  4  5  4  4  5  4  4  5  4
++         3  4  4  4  4  3  4  4  4  3  4  3  3  4  3  4  4
++         4  4  4  3  4  3  3  4  4  4  4  4  4  4  3  8  8
++        17  7  6  6  6  6 15  6  6  6 15  6  6  7  6  6  6
++         6  7  7  6 15  6  0  0  0  0  0  0  0  0  0  0  0
%c M  cc GPS ccc cccc cccc cccc cccc ccccc ccccc ccccc ccccc
%c cc cc ccc ccc cccc cccc cccc cccc ccccc ccccc ccccc ccccc
%f  0.0000000  0.000000000  0.00000000000  0.000000000000000
%f  0.0000000  0.000000000  0.00000000000  0.000000000000000
%i    0    0    0    0      0      0      0      0         0
%i    0    0    0    0      0      0      0      0         0
/* INFORMATION & ANALYSIS CENTER (IAC)            RAPID DATA
/* S/V CLOCKS ARE ALIGNED TO GNSS TIME                      
/* G:C1WC2W R:C1PC2P E:C1XC5X C:C2IC6I J:C1CC2S             
/* PCV:IGS14_2215 OL/AL:FES2004  NONE     YN ORB:CoN CLK:CoN
*  2022 07 12 21 30  0.00000000
PC01 -34294.710438  24562.553896   -433.674250 999999.999999
PC02   4491.927922  41873.922365  -1456.319664   -183.745726
PC03 -14718.320343  39486.991996   -941.626698   -489.651325
PC04 -39613.970654  14473.563073     29.674515    308.903193
PC05  22066.469309  35924.010886  -1081.602647   -133.168749
PC06 -10696.724294  40596.873691  -1988.169683    380.774300
PC07  -2291.975090  29443.864944  30167.619985   -420.800262
PC09  -6622.196109  40953.881042   6174.135497   -929.827720
PC10   4501.063546  31754.362105  27876.232459    119.011949
PC11  -1576.321279  27496.789347  -4553.811237    470.595051
PC12 -11839.244605  21917.181300  12627.381032   -578.570055
PC13 -11085.239530  25296.145509 -31829.519519     22.167430
PC14   7295.559302  20669.515026 -17287.632987    538.721745
PC16 -11748.871371  40094.931860  -4190.277797    142.976992
PC19 -15857.061884 -20745.607331   9835.561488   -196.330473
PC20    782.917524 -17908.829701  21390.608487   -963.937479
PC21 -18070.061734   4085.938780 -20845.934152   -665.481888
PC22 -24028.712847 -11705.301173  -7967.628934   -962.842011
PC23  23235.666681   2485.239967  15266.631588   -944.459982
PC24 -13665.095528  18121.997608  16248.446103   -967.870564
PC25   8257.532956  14112.109247  22610.062980   -708.532822
PC26 -25060.426740  12191.470955   1760.915180    710.449531
PC27  15211.565097 -14148.263215 -18662.505583    753.238031
PC28  14968.063649   6244.686326 -22711.887973     89.253229
PC29  -6585.576998 -23680.643757  13200.713287    580.828823
PC30   6171.458046 -26849.179669  -4521.349420    501.006358
PC32  18122.511853  -4168.065975  20826.624825   -972.771758
PC33  15949.845611  20676.600029  -9865.372366   -150.692364
PC34  -5532.296812  27120.817461   3457.834189   -360.263651
PC35 -14952.720876  -7101.090605  22456.231446    362.938893
PC36  -7357.364573 -14538.802519 -22624.010239   -973.785791
PC37  25685.195528 -10866.953536   -584.004781   -916.255779
PC39 -13314.328178  38355.767447 -10942.172198     -0.055668
PC40  -5831.609951  24360.437761  33937.564942     -0.473606
PC41  24081.701558  11948.171525   7548.747089    -75.388328
PC42  -1818.788833  17429.603911 -21680.304919   -954.011147
PC43   6145.369614  24123.426402 -12605.936308      2.564386
PC44 -14839.133967  14451.278665  18671.104574    722.015246
PC45 -23397.133577  -2132.883588 -15064.070942    807.313619
PC46  12073.991778 -18178.874971 -17363.866927   -428.496679
PC59 -32315.163336  27096.561641   -525.249081     -0.176392
PC60   7307.623566  41541.699375   -534.195414     -0.260540
PE01 -12508.060056  13978.172378  22904.682845   -513.934002
PE02  12308.961263 -14043.889479 -22959.575168    311.542273
PE03   4312.071773 -23036.445888  18073.394327   -578.343731
PE04  10108.692406  27770.929561  -1690.086045  -1070.033421
PE05  16483.031009  -4656.452170  24147.616148   -163.567635
PE07 -18876.316214 -16142.252548 -16084.539744   -686.929510
PE08 -10308.698143 -27696.546842   1537.435698   -562.540256
PE09  18850.927742  16125.861028  16167.276778   -585.414309
PE10   8629.402833  14568.245160 -24295.111920   -500.115952
PE11  16208.806637   4823.099619 -24312.718063   3032.415624
PE12    195.574285  21491.588541 -20357.281159    -58.793423
PE13 -15697.334187  -5473.295399  24484.693710    429.776835
PE14 -11327.187516  14786.954334  17268.337096  -1780.947656
PE15    -33.809566 -21553.163660  20285.949562    733.660925
PE18  18907.597219  -6527.646384 -23885.588938  -1221.566723
PE19  -6094.064604  21276.092953 -19646.847302  -5111.373205
PE21 -27089.588473   3993.648074  11244.701020   -745.537471
PE24  26578.239344   9737.159404   8619.998926   -721.382315
PE25  27221.189533  -3793.110376 -10979.487667   -580.835491
PE26 -22116.834026  14358.825812  13447.758875  -1369.615622
PE27 -27161.982467  -8977.933506  -7605.238218   -343.339103
PE30 -10179.045558 -16770.655902 -22171.865610   -667.156009
PE31  11238.439089  16557.410534  21823.750866   -499.812632
PE33 -15558.717250  24834.483507  -4155.888155   -454.764346
PE34  15409.195943 -24893.319874   4315.864349   -485.534213
PE36  22025.574888 -13681.721993 -14288.377745   -401.268645
PG01 -12145.655131  21460.902022  -9699.380462    322.685329
PG02  20208.491381 -13385.421927 -10388.372261   -651.524195
PG03  -6085.665806  13835.058510 -21949.724108   -305.432405
PG04  -3073.467521  23192.048364 -12478.025171   -146.661839
PG05  19983.122157  -7257.419880  15839.399579    -88.902194
PG06  17213.964836   1344.425515 -20146.825722    382.255309
PG07   2627.581861  17718.022921  19867.235032    319.496802
PG08  -7816.008809  17420.914633  18269.821245    -75.932889
PG09   6037.963634  25709.580316  -2722.989441   -319.676340
PG10 -22308.533300 -11703.047555   9027.276714   -489.521117
PG11  21935.865649  -9744.695970 -11346.977542    -10.888791
PG12   9952.422049 -12351.209524 -21554.853522   -245.427130
PG13  13562.889467  -7933.070819  21230.652362    347.195061
PG14  20866.942362  13241.848014   9868.542996   -111.883983
PG15   6212.739817 -18393.616262  17569.208662    -45.937391
PG16 -23782.400486    580.218576  11999.146892   -514.953526
PG17  12893.723484  19348.482436 -12353.745842    636.103559
PG18  -1703.491247 -17506.123637  19853.344260    115.218079
PG19  15093.217568  11276.891414 -19069.588461    182.871242
PG20  25871.484846  -1660.172326   5185.413109    503.746194
PG21 -17269.000435  19648.605910   1443.597674    161.131258
PG22 -15564.724924  -8413.117810 -19446.419804    291.274095
PG23 -13767.870788 -14975.265360  17126.877427    -32.628892
PG24  13357.359582 -22218.477465  -4947.440232    198.585659
PG25  -5418.978817 -16252.119146 -20648.899005    348.406151
PG26 -26431.307347  -3513.471757   1836.675029    217.848248
PG27 -14353.843457   3899.750390  21789.881451    220.516250
PG28  24512.848651   9797.274876   1815.815360    333.787217
PG29  -3985.709873 -26124.319808  -2262.082320   -532.948143
PG30  11932.994889  10402.572883  21423.532265   -533.835758
PG31 -19279.407657    624.349408 -18586.841664   -185.491134
PG32 -15313.524884 -16467.439931 -14132.109870   -174.634518
PJ02 -30193.208395  22107.372489  24379.535553     -1.615153
PJ03 -28987.993806  28791.773058  15763.033862     -0.113330
PJ07 -25364.269505  33687.330011      5.950858     -0.016616
PR01  -9874.264882 -19660.543286  12898.567348     11.377376
PR02 -18391.208331 -16583.556684  -6205.985604    523.928442
PR03 -15528.222498  -3258.551738 -19946.373079     60.098904
PR04  -3875.344861  11446.503149 -22433.584970    150.415671
PR05   9705.773962  19965.519249 -12531.579506     96.135631
PR06  19077.958383  15278.052718   7256.609402    -58.776256
PR07  15115.056221   2479.703730  20422.495863     37.758021
PR08   3820.681162 -11675.375358  22416.362699    -66.175214
PR09  19341.487959   3821.531601  16253.411069     65.434702
PR10  24974.333062  -4647.845947   1861.371862    -84.120681
PR11  17104.873524 -11210.180596 -15242.036173     33.478503
PR12  -1973.228273 -10824.207227 -22981.974567     19.268438
PR13 -18211.993759  -4432.832560 -17308.210731    -24.545689
PR14 -24943.322978   5278.911959   -234.999345     24.906489
PR15 -16419.009934  11281.010082  15952.279095     94.705418
PR17 -12703.253673   8757.816888  20326.604746    542.936027
PR18 -11062.610041  21715.685776   7459.144604    123.358729
PR19  -4959.846599  23614.736564  -8291.742038   -196.069513
PR20   6533.350893  10617.657813 -22246.964105    -74.470052
PR21  12809.073650 -10158.623618 -19576.774197   -316.900545
PR23   1388.794254 -21740.626867  13252.872334    -47.515104
PR24  -7567.541737  -9943.301528  22243.388360    103.253722
EOF
